     2.10           GLONASS NAV DATA                        RINEX VERSION / TYPE
WaNJOIG 1.3c        SAPOS               2021-01-18 16:43:17 PGM / RUN BY / DATE 
    18                                                      LEAP SECONDS
  2021     1     2   -0.232830643654D-08                    CORR TO SYSTEM TIME 
  2021     1     3   -0.931322574615D-09                    CORR TO SYSTEM TIME 
                                                            END OF HEADER       
01 21 01 02 11 15  0.0  .728908926249E-04  .000000000000E+00  .396000000000E+05
     .168957153320E+05  .172959327698E+01  .000000000000E+00  .000000000000E+00
     .570542041016E+04  .180341243744E+01  .931322574615E-09  .100000000000E+01
     .182393251953E+05 -.216466712952E+01 -.279396772385E-08  .000000000000E+00
08 21 01 02 11 15  0.0 -.566160306334E-04  .000000000000E+00  .396000000000E+05
     .182380717773E+05  .675571441650E+00  .186264514923E-08  .000000000000E+00
     .166830620117E+05  .549241065979E+00  .186264514923E-08  .600000000000E+01
     .630486718750E+04 -.343545627594E+01 -.279396772385E-08  .000000000000E+00
10 21 01 02 11 15  0.0 -.652112066746E-04  .000000000000E+00  .396000000000E+05
     .177135888672E+04 -.309065341949E+01  .000000000000E+00  .000000000000E+00
     .108291679688E+05  .629335403442E+00 -.931322574615E-09 -.700000000000E+01
     .230180629883E+05 -.512638092041E-01 -.279396772385E-08  .000000000000E+00
17 21 01 02 11 15  0.0  .387721695006E-03  .272848410532E-11  .396000000000E+05
     .253283349609E+04  .344599723816E+00 -.372529029846E-08  .000000000000E+00
    -.226469956055E+05 -.154001903534E+01 -.931322574615E-09  .400000000000E+01
     .114366845703E+05 -.313356494904E+01  .000000000000E+00  .000000000000E+00
02 21 01 02 11 15  0.0  .461188144982E-03  .181898940355E-11  .396000000000E+05
     .304117333984E+04  .190728950500E+01 -.279396772385E-08  .000000000000E+00
    -.125164633789E+05  .233004665375E+01 -.931322574615E-09 -.400000000000E+01
     .220627084961E+05  .105485057831E+01 -.931322574615E-09  .000000000000E+00
12 21 01 02 11 15  0.0  .193315558136E-03  .272848410532E-11  .396000000000E+05
     .249936689453E+05  .289487838745E-01  .000000000000E+00  .000000000000E+00
    -.500599707031E+04 -.169449806213E+00  .279396772385E-08 -.100000000000E+01
    -.415811035156E+03  .357174968719E+01 -.186264514923E-08  .000000000000E+00
11 21 01 02 11 15  0.0  .498071312904E-05  .000000000000E+00  .396000000000E+05
     .192589492188E+05 -.220797634125E+01  .000000000000E+00  .100000000000E+01
     .386845068359E+04  .325172424316E+00  .931322574615E-09  .000000000000E+00
     .162860156250E+05  .253449153900E+01 -.279396772385E-08  .000000000000E+00
01 21 01 02 11 45  0.0  .728918239474E-04  .000000000000E+00  .414300000000E+05
     .198406020508E+05  .149659061432E+01  .931322574615E-09  .000000000000E+00
     .835330371094E+04  .113403415680E+01  .931322574615E-09  .100000000000E+01
     .136882587891E+05 -.285922908783E+01 -.279396772385E-08  .000000000000E+00
02 21 01 02 11 45  0.0  .461191870272E-03  .181898940355E-11  .414600000000E+05
     .688492578125E+04  .233279514313E+01 -.186264514923E-08  .000000000000E+00
    -.847469189453E+04  .211960983276E+01  .000000000000E+00 -.400000000000E+01
     .230879423828E+05  .767908096313E-01 -.186264514923E-08  .000000000000E+00
03 21 01 02 11 45  0.0  .284286215901E-04  .909494701773E-12  .428400000000E+05
    -.850540185547E+04  .155729770660E+01 -.465661287308E-08  .000000000000E+00
    -.179079555664E+05  .155509185791E+01 -.186264514923E-08  .500000000000E+01
     .161199643555E+05  .254974746704E+01  .000000000000E+00  .000000000000E+00
08 21 01 02 11 45  0.0 -.566169619560E-04  .000000000000E+00  .414300000000E+05
     .189650874023E+05  .981960296631E-01  .372529029846E-08  .000000000000E+00
     .170410913086E+05 -.128285408020E+00  .186264514923E-08  .600000000000E+01
    -.428759765625E+02 -.357178974152E+01 -.186264514923E-08  .000000000000E+00
09 21 01 02 11 15  0.0  .163922086358E-04  .181898940355E-11  .396000000000E+05
    -.155620732422E+05 -.221808338165E+01  .000000000000E+00  .000000000000E+00
     .114354858398E+05  .520137786865E+00 -.279396772385E-08 -.200000000000E+01
     .166434277344E+05 -.243943405151E+01 -.931322574615E-09  .000000000000E+00
10 21 01 02 11 45  0.0 -.652112066746E-04  .000000000000E+00  .414300000000E+05
    -.360790869141E+04 -.283866882324E+01  .000000000000E+00  .000000000000E+00
     .123364741211E+05  .102602577209E+01 -.186264514923E-08 -.700000000000E+01
     .220368481445E+05 -.103167819977E+01 -.186264514923E-08  .000000000000E+00
11 21 01 02 11 45  0.0  .497978180647E-05  .000000000000E+00  .414300000000E+05
     .148588437500E+05 -.263449382782E+01  .000000000000E+00  .100000000000E+01
     .488944042969E+04  .822256088257E+00  .000000000000E+00  .000000000000E+00
     .201603081055E+05  .174237823486E+01 -.279396772385E-08  .000000000000E+00
12 21 01 02 11 45  0.0  .193320214748E-03  .272848410532E-11  .414300000000E+05
     .242679482422E+05 -.818892478943E+00  .931322574615E-09  .000000000000E+00
    -.509512304688E+04  .108107566833E+00  .186264514923E-08 -.100000000000E+01
     .594624511719E+04  .345124626160E+01 -.186264514923E-08  .000000000000E+00
18 21 01 02 11 45  0.0  .617709010839E-04  .909494701773E-12  .414300000000E+05
    -.547584912109E+04  .433528900146E+00 -.465661287308E-08  .000000000000E+00
    -.157241411133E+05 -.261624431610E+01 -.186264514923E-08 -.300000000000E+01
     .193658212891E+05 -.199917697906E+01  .000000000000E+00  .000000000000E+00
19 21 01 02 11 45  0.0 -.126220285892E-03 -.909494701773E-12  .414300000000E+05
    -.107700488281E+05  .783263206482E+00 -.279396772385E-08  .000000000000E+00
     .741125488281E+03 -.307084178925E+01 -.279396772385E-08  .300000000000E+01
     .231185585938E+05  .462934494019E+00 -.931322574615E-09  .000000000000E+00
20 21 01 02 11 45  0.0 -.430240295827E-03 -.909494701773E-12  .429900000000E+05
    -.105308417969E+05  .614895820618E+00  .000000000000E+00  .000000000000E+00
     .195770297852E+05 -.161178970337E+01 -.186264514923E-08  .200000000000E+01
     .124885600586E+05  .305222225189E+01 -.931322574615E-09  .000000000000E+00
10 21 01 02 12 15  0.0 -.652121379972E-04  .000000000000E+00  .432000000000E+05
    -.829398925781E+04 -.233152770996E+01 -.931322574615E-09  .000000000000E+00
     .144252998047E+05  .126102924347E+01 -.186264514923E-08 -.700000000000E+01
     .193527089844E+05 -.193116950989E+01 -.931322574615E-09  .000000000000E+00
01 21 01 02 12 15  0.0  .728927552700E-04  .000000000000E+00  .432000000000E+05
     .221243403320E+05  .999917030334E+00  .279396772385E-08  .000000000000E+00
     .980472460938E+04  .492308616638E+00  .931322574615E-09  .100000000000E+01
     .807909912109E+04 -.333270454407E+01 -.279396772385E-08  .000000000000E+00
03 21 01 02 12 15  0.0  .284314155579E-04  .909494701773E-12  .432000000000E+05
    -.510057031250E+04  .220921134949E+01 -.372529029846E-08  .000000000000E+00
    -.150198305664E+05  .160919857025E+01 -.931322574615E-09  .500000000000E+01
     .200305253906E+05  .176724815369E+01 -.931322574615E-09  .000000000000E+00
08 21 01 02 12 15  0.0 -.566178932786E-04  .000000000000E+00  .432000000000E+05
     .184936665039E+05 -.641328811646E+00  .372529029846E-08  .000000000000E+00
     .163302900391E+05 -.625187873840E+00  .931322574615E-09  .600000000000E+01
    -.638719042969E+04 -.343154239655E+01 -.186264514923E-08  .000000000000E+00
02 21 01 02 12 15  0.0  .461195595562E-03  .181898940355E-11  .432000000000E+05
     .113039482422E+05  .253395462036E+01 -.931322574615E-09  .000000000000E+00
    -.501263964844E+04  .169896697998E+01  .000000000000E+00 -.400000000000E+01
     .223349741211E+05 -.908207893372E+00 -.279396772385E-08  .000000000000E+00
12 21 01 02 12 15  0.0  .193325802684E-03  .272848410532E-11  .432000000000E+05
     .221361416016E+05 -.151679134369E+01  .931322574615E-09  .000000000000E+00
    -.449765820313E+04  .582981109619E+00  .186264514923E-08 -.100000000000E+01
     .118481083984E+05  .306382942200E+01 -.279396772385E-08  .000000000000E+00
19 21 01 02 12 15  0.0 -.126222148538E-03 -.909494701773E-12  .432000000000E+05
    -.978410986328E+04  .303437232971E+00 -.372529029846E-08  .000000000000E+00
    -.490068994141E+04 -.314510726929E+01 -.186264514923E-08  .300000000000E+01
     .230482348633E+05 -.540581703186E+00 -.931322574615E-09  .000000000000E+00
11 21 01 02 12 15  0.0  .497978180647E-05  .000000000000E+00  .432000000000E+05
     .995207714844E+04 -.276705360413E+01  .000000000000E+00  .100000000000E+01
     .684315869141E+04  .134339809418E+01  .000000000000E+00  .000000000000E+00
     .224776894531E+05  .815799713135E+00 -.279396772385E-08  .000000000000E+00
01 21 01 02 12 45  0.0  .728936865926E-04  .000000000000E+00  .450300000000E+05
     .233118750000E+05  .290431976318E+00  .372529029846E-08  .000000000000E+00
     .102038212891E+05 -.199604034424E-01  .931322574615E-09  .100000000000E+01
     .184550000000E+04 -.354855728149E+01 -.279396772385E-08  .000000000000E+00
02 21 01 02 12 45  0.0  .461198389530E-03  .909494701773E-12  .450300000000E+05
     .158380175781E+05  .245467472076E+01  .000000000000E+00  .000000000000E+00
    -.242980664063E+04  .115988445282E+01  .931322574615E-09 -.400000000000E+01
     .198597504883E+05 -.182444095612E+01 -.279396772385E-08  .000000000000E+00
03 21 01 02 12 45  0.0  .284332782030E-04  .909494701773E-12  .450300000000E+05
    -.643611816406E+03  .270952987671E+01 -.372529029846E-08  .000000000000E+00
    -.122650048828E+05  .141441440582E+01  .000000000000E+00  .500000000000E+01
     .224001572266E+05  .848596572876E+00 -.931322574615E-09  .000000000000E+00
